ORBCOMM FM115           
1 41186U 15081H   25232.12865282  .00000523  00000+0  13632-3 0  9990
2 41186  46.9983  95.4299 0000993 329.2936  30.7893 14.62591810517138
ORBCOMM FM108           
1 41187U 15081J   25232.50892651  .00000581  00000+0  16112-3 0  9993
2 41187  47.0044 163.1903 0003001 262.4876  97.5669 14.58242150516189
ORBCOMM FM117           
1 41188U 15081K   25232.20104468  .00000600  00000+0  16520-3 0  9998
2 41188  47.0006 163.3847 0003650 268.0544  91.9923 14.58239005516187
ORBCOMM FM116           
1 41189U 15081L   25232.52956272  .00000368  00000+0  11533-3 0  9992
2 41189  47.0009 251.6568 0000757 104.1184 255.9785 14.58285847515044
